JACK K                  
1 66659U 25274K   25341.84720711  .00004489  00000+0  43923-3 0  9995
2 66659  97.7390 269.1436 0012301 298.9287  61.0698 14.92767520  1679
K-HERO                  
1 66660U 25274L   25341.84608928  .00003889  00000+0  37977-3 0  9997
2 66660  97.7395 269.1456 0012929 299.5360  60.4570 14.92915759  1674
SNUGLITE-III            
1 66661U 25274M   25341.77793148  .00003968  00000+0  38587-3 0  9995
2 66661  97.7393 269.0808 0013512 300.9026  59.0865 14.93063362  1663
2025-274N               
1 66662U 25274N   25341.77747008  .00002609  00000+0  25535-3 0  9990
2 66662  97.7390 269.0817 0013955 300.0906  59.8929 14.93109262  1669
KSLV-II R/B             
1 66663U 25274P   25340.81046813  .00006269  00000+0  53389-3 0  9995
2 66663  97.7412 268.2109 0048411 339.2416  20.6839 14.97226496  1529
SOYUZ-MS 28             
1 66664U 25275A   25341.89741187  .00012051  00000+0  22339-3 0  9999
2 66664  51.6302 166.4547 0003425 217.7386 142.3363 15.49404055  1288
KOMPSAT-7               
1 66820U 25279A   25341.86823700  .00004619  00000+0  39201-3 0  9993
2 66820  97.6397 287.8336 0009436 238.6296 121.4004 14.98364297   926
ZQ-3 R/B                
1 66877U 25282A   25341.65364536  .01166636  72745-5  25182-3 0  9996
2 66877  56.9538  76.9574 0833654 211.2388 143.6444 14.46379859   657
1998-067XS              
1 66906U 98067XS  25341.76603330  .00033584  00000+0  58960-3 0  9993
2 66906  51.6298 167.0779 0004102 180.8323 179.2660 15.50202047   848
1998-067XT              
1 66907U 98067XT  25341.89423530  .00063549  00000+0  10872-2 0  9993
2 66907  51.6300 166.4336 0005083 199.2143 160.8655 15.50640627   860
1998-067XU              
1 66908U 98067XU  25341.82962947  .00073824  00000+0  12584-2 0  9996
2 66908  51.6294 166.7524 0005249 198.4563 161.6236 15.50677163   854
SILVERSAT               
1 66909U 98067XV  25341.82955888  .00087585  00000+0  14852-2 0  9992
2 66909  51.6296 166.7520 0005092 199.8533 160.2258 15.50747382   851
