CCSDS_OMM_VERS = 2.0
CREATION_DATE  = 
ORIGINATOR     = 

OBJECT_NAME    = JACK K
OBJECT_ID      = 2025-274K
CENTER_NAME    = EARTH
REF_FRAME      = TEME
TIME_SYSTEM    = UTC
MEAN_ELEMENT_THEORY = SGP/SGP4

EPOCH          = 2025-12-07T20:19:58.694304
MEAN_MOTION    = 14.92767520
ECCENTRICITY   = .00123012
INCLINATION    = 97.7390
RA_OF_ASC_NODE = 269.1436
ARG_OF_PERICENTER = 298.9287
MEAN_ANOMALY   = 61.0698

EPHEMERIS_TYPE = 0
CLASSIFICATION_TYPE = U
NORAD_CAT_ID   = 66659
ELEMENT_SET_NO = 999
REV_AT_EPOCH   = 167
BSTAR          = .43922873E-3
MEAN_MOTION_DOT = .4489E-4
MEAN_MOTION_DDOT = 0

CCSDS_OMM_VERS = 2.0
CREATION_DATE  = 
ORIGINATOR     = 

OBJECT_NAME    = K-HERO
OBJECT_ID      = 2025-274L
CENTER_NAME    = EARTH
REF_FRAME      = TEME
TIME_SYSTEM    = UTC
MEAN_ELEMENT_THEORY = SGP/SGP4

EPOCH          = 2025-12-07T20:18:22.113792
MEAN_MOTION    = 14.92915759
ECCENTRICITY   = .00129295
INCLINATION    = 97.7395
RA_OF_ASC_NODE = 269.1456
ARG_OF_PERICENTER = 299.5360
MEAN_ANOMALY   = 60.4570

EPHEMERIS_TYPE = 0
CLASSIFICATION_TYPE = U
NORAD_CAT_ID   = 66660
ELEMENT_SET_NO = 999
REV_AT_EPOCH   = 167
BSTAR          = .37977318E-3
MEAN_MOTION_DOT = .3889E-4
MEAN_MOTION_DDOT = 0

CCSDS_OMM_VERS = 2.0
CREATION_DATE  = 
ORIGINATOR     = 

OBJECT_NAME    = SNUGLITE-III
OBJECT_ID      = 2025-274M
CENTER_NAME    = EARTH
REF_FRAME      = TEME
TIME_SYSTEM    = UTC
MEAN_ELEMENT_THEORY = SGP/SGP4

EPOCH          = 2025-12-07T18:40:13.279872
MEAN_MOTION    = 14.93063362
ECCENTRICITY   = .00135128
INCLINATION    = 97.7393
RA_OF_ASC_NODE = 269.0808
ARG_OF_PERICENTER = 300.9026
MEAN_ANOMALY   = 59.0865

EPHEMERIS_TYPE = 0
CLASSIFICATION_TYPE = U
NORAD_CAT_ID   = 66661
ELEMENT_SET_NO = 999
REV_AT_EPOCH   = 166
BSTAR          = .38586643E-3
MEAN_MOTION_DOT = .3968E-4
MEAN_MOTION_DDOT = 0

CCSDS_OMM_VERS = 2.0
CREATION_DATE  = 
ORIGINATOR     = 

OBJECT_NAME    = 2025-274N
OBJECT_ID      = 2025-274N
CENTER_NAME    = EARTH
REF_FRAME      = TEME
TIME_SYSTEM    = UTC
MEAN_ELEMENT_THEORY = SGP/SGP4

EPOCH          = 2025-12-07T18:39:33.414912
MEAN_MOTION    = 14.93109262
ECCENTRICITY   = .00139556
INCLINATION    = 97.7390
RA_OF_ASC_NODE = 269.0817
ARG_OF_PERICENTER = 300.0906
MEAN_ANOMALY   = 59.8929

EPHEMERIS_TYPE = 0
CLASSIFICATION_TYPE = U
NORAD_CAT_ID   = 66662
ELEMENT_SET_NO = 999
REV_AT_EPOCH   = 166
BSTAR          = .2553501E-3
MEAN_MOTION_DOT = .2609E-4
MEAN_MOTION_DDOT = 0

CCSDS_OMM_VERS = 2.0
CREATION_DATE  = 
ORIGINATOR     = 

OBJECT_NAME    = KSLV-II R/B
OBJECT_ID      = 2025-274P
CENTER_NAME    = EARTH
REF_FRAME      = TEME
TIME_SYSTEM    = UTC
MEAN_ELEMENT_THEORY = SGP/SGP4

EPOCH          = 2025-12-06T19:27:04.446432
MEAN_MOTION    = 14.97226496
ECCENTRICITY   = .00484111
INCLINATION    = 97.7412
RA_OF_ASC_NODE = 268.2109
ARG_OF_PERICENTER = 339.2416
MEAN_ANOMALY   = 20.6839

EPHEMERIS_TYPE = 0
CLASSIFICATION_TYPE = U
NORAD_CAT_ID   = 66663
ELEMENT_SET_NO = 999
REV_AT_EPOCH   = 152
BSTAR          = .53388811E-3
MEAN_MOTION_DOT = .6269E-4
MEAN_MOTION_DDOT = 0

CCSDS_OMM_VERS = 2.0
CREATION_DATE  = 
ORIGINATOR     = 

OBJECT_NAME    = SOYUZ-MS 28
OBJECT_ID      = 2025-275A
CENTER_NAME    = EARTH
REF_FRAME      = TEME
TIME_SYSTEM    = UTC
MEAN_ELEMENT_THEORY = SGP/SGP4

EPOCH          = 2025-12-07T21:32:16.385568
MEAN_MOTION    = 15.49404055
ECCENTRICITY   = .0003425
INCLINATION    = 51.6302
RA_OF_ASC_NODE = 166.4547
ARG_OF_PERICENTER = 217.7386
MEAN_ANOMALY   = 142.3363

EPHEMERIS_TYPE = 0
CLASSIFICATION_TYPE = U
NORAD_CAT_ID   = 66664
ELEMENT_SET_NO = 999
REV_AT_EPOCH   = 128
BSTAR          = .22339025E-3
MEAN_MOTION_DOT = .12051E-3
MEAN_MOTION_DDOT = 0

CCSDS_OMM_VERS = 2.0
CREATION_DATE  = 
ORIGINATOR     = 

OBJECT_NAME    = KOMPSAT-7
OBJECT_ID      = 2025-279A
CENTER_NAME    = EARTH
REF_FRAME      = TEME
TIME_SYSTEM    = UTC
MEAN_ELEMENT_THEORY = SGP/SGP4

EPOCH          = 2025-12-07T20:50:15.676800
MEAN_MOTION    = 14.98364297
ECCENTRICITY   = .00094369
INCLINATION    = 97.6397
RA_OF_ASC_NODE = 287.8336
ARG_OF_PERICENTER = 238.6296
MEAN_ANOMALY   = 121.4004

EPHEMERIS_TYPE = 0
CLASSIFICATION_TYPE = U
NORAD_CAT_ID   = 66820
ELEMENT_SET_NO = 999
REV_AT_EPOCH   = 92
BSTAR          = .39201075E-3
MEAN_MOTION_DOT = .4619E-4
MEAN_MOTION_DDOT = 0

CCSDS_OMM_VERS = 2.0
CREATION_DATE  = 
ORIGINATOR     = 

OBJECT_NAME    = ZQ-3 R/B
OBJECT_ID      = 2025-282A
CENTER_NAME    = EARTH
REF_FRAME      = TEME
TIME_SYSTEM    = UTC
MEAN_ELEMENT_THEORY = SGP/SGP4

EPOCH          = 2025-12-07T15:41:14.959104
MEAN_MOTION    = 14.46379859
ECCENTRICITY   = .08336548
INCLINATION    = 56.9538
RA_OF_ASC_NODE = 76.9574
ARG_OF_PERICENTER = 211.2388
MEAN_ANOMALY   = 143.6444

EPHEMERIS_TYPE = 0
CLASSIFICATION_TYPE = U
NORAD_CAT_ID   = 66877
ELEMENT_SET_NO = 999
REV_AT_EPOCH   = 65
BSTAR          = .25181776E-3
MEAN_MOTION_DOT = .1166636E-1
MEAN_MOTION_DDOT = .7274498E-5

CCSDS_OMM_VERS = 2.0
CREATION_DATE  = 
ORIGINATOR     = 

OBJECT_NAME    = 1998-067XS
OBJECT_ID      = 1998-067XS
CENTER_NAME    = EARTH
REF_FRAME      = TEME
TIME_SYSTEM    = UTC
MEAN_ELEMENT_THEORY = SGP/SGP4

EPOCH          = 2025-12-07T18:23:05.277120
MEAN_MOTION    = 15.50202047
ECCENTRICITY   = .00041027
INCLINATION    = 51.6298
RA_OF_ASC_NODE = 167.0779
ARG_OF_PERICENTER = 180.8323
MEAN_ANOMALY   = 179.2660

EPHEMERIS_TYPE = 0
CLASSIFICATION_TYPE = U
NORAD_CAT_ID   = 66906
ELEMENT_SET_NO = 999
REV_AT_EPOCH   = 84
BSTAR          = .58960248E-3
MEAN_MOTION_DOT = .33584E-3
MEAN_MOTION_DDOT = 0

CCSDS_OMM_VERS = 2.0
CREATION_DATE  = 
ORIGINATOR     = 

OBJECT_NAME    = 1998-067XT
OBJECT_ID      = 1998-067XT
CENTER_NAME    = EARTH
REF_FRAME      = TEME
TIME_SYSTEM    = UTC
MEAN_ELEMENT_THEORY = SGP/SGP4

EPOCH          = 2025-12-07T21:27:41.929920
MEAN_MOTION    = 15.50640627
ECCENTRICITY   = .00050838
INCLINATION    = 51.6300
RA_OF_ASC_NODE = 166.4336
ARG_OF_PERICENTER = 199.2143
MEAN_ANOMALY   = 160.8655

EPHEMERIS_TYPE = 0
CLASSIFICATION_TYPE = U
NORAD_CAT_ID   = 66907
ELEMENT_SET_NO = 999
REV_AT_EPOCH   = 86
BSTAR          = .10871959E-2
MEAN_MOTION_DOT = .63549E-3
MEAN_MOTION_DDOT = 0

CCSDS_OMM_VERS = 2.0
CREATION_DATE  = 
ORIGINATOR     = 

OBJECT_NAME    = 1998-067XU
OBJECT_ID      = 1998-067XU
CENTER_NAME    = EARTH
REF_FRAME      = TEME
TIME_SYSTEM    = UTC
MEAN_ELEMENT_THEORY = SGP/SGP4

EPOCH          = 2025-12-07T19:54:39.986208
MEAN_MOTION    = 15.50677163
ECCENTRICITY   = .00052497
INCLINATION    = 51.6294
RA_OF_ASC_NODE = 166.7524
ARG_OF_PERICENTER = 198.4563
MEAN_ANOMALY   = 161.6236

EPHEMERIS_TYPE = 0
CLASSIFICATION_TYPE = U
NORAD_CAT_ID   = 66908
ELEMENT_SET_NO = 999
REV_AT_EPOCH   = 85
BSTAR          = .12583992E-2
MEAN_MOTION_DOT = .73824E-3
MEAN_MOTION_DDOT = 0

CCSDS_OMM_VERS = 2.0
CREATION_DATE  = 
ORIGINATOR     = 

OBJECT_NAME    = SILVERSAT
OBJECT_ID      = 1998-067XV
CENTER_NAME    = EARTH
REF_FRAME      = TEME
TIME_SYSTEM    = UTC
MEAN_ELEMENT_THEORY = SGP/SGP4

EPOCH          = 2025-12-07T19:54:33.887232
MEAN_MOTION    = 15.50747382
ECCENTRICITY   = .00050921
INCLINATION    = 51.6296
RA_OF_ASC_NODE = 166.7520
ARG_OF_PERICENTER = 199.8533
MEAN_ANOMALY   = 160.2258

EPHEMERIS_TYPE = 0
CLASSIFICATION_TYPE = U
NORAD_CAT_ID   = 66909
ELEMENT_SET_NO = 999
REV_AT_EPOCH   = 85
BSTAR          = .14852493E-2
MEAN_MOTION_DOT = .87585E-3
MEAN_MOTION_DDOT = 0

